name,lat,lon,分類,説明,住所,備考
第一小学校,35.6614507390798,139.33607878668943,指定緊急避難場所（一時避難場所）地震［屋外］,地震などが発生したときに、様子を見るためにとりあえず避難する場所で、正確な情報を得て、地域ぐるみで活動を行う拠点となります。,元横山町2－14－3
第二小学校,35.661775638364716,139.32219074594107,指定緊急避難場所（一時避難場所）地震［屋外］,地震などが発生したときに、様子を見るためにとりあえず避難する場所で、正確な情報を得て、地域ぐるみで活動を行う拠点となります。,八木町7－1
第三小学校,35.65557724677106,139.3320884858619,指定緊急避難場所（一時避難場所）地震［屋外］,地震などが発生したときに、様子を見るためにとりあえず避難する場所で、正確な情報を得て、地域ぐるみで活動を行う拠点となります。,寺町29－15
第四小学校,35.65796829313898,139.34638533515937,指定緊急避難場所（一時避難場所）地震［屋外］,地震などが発生したときに、様子を見るためにとりあえず避難する場所で、正確な情報を得て、地域ぐるみで活動を行う拠点となります。,明神町2－15－1
第五小学校,35.6593735353337,139.30808559136526,指定緊急避難場所（一時避難場所）地震［屋外］,地震などが発生したときに、様子を見るためにとりあえず避難する場所で、正確な情報を得て、地域ぐるみで活動を行う拠点となります。,千人町3－7－7
いずみの森義務教育学校,35.65093346639023,139.3426674460336,指定緊急避難場所（一時避難場所）地震［屋外］,地震などが発生したときに、様子を見るためにとりあえず避難する場所で、正確な情報を得て、地域ぐるみで活動を行う拠点となります。,子安町2－18－1
第七小学校,35.65702721763716,139.32410684598202,指定緊急避難場所（一時避難場所）地震［屋外］,地震などが発生したときに、様子を見るためにとりあえず避難する場所で、正確な情報を得て、地域ぐるみで活動を行う拠点となります。,台町4－2－1
第八小学校,35.671460023582355,139.36071122541762,指定緊急避難場所（一時避難場所）地震［屋外］,地震などが発生したときに、様子を見るためにとりあえず避難する場所で、正確な情報を得て、地域ぐるみで活動を行う拠点となります。,石川町2065
第九小学校,35.67094398396844,139.32508818237866,指定緊急避難場所（一時避難場所）地震［屋外］,地震などが発生したときに、様子を見るためにとりあえず避難する場所で、正確な情報を得て、地域ぐるみで活動を行う拠点となります。,中野上町2－14－1
第十小学校,35.666240307349504,139.3436035838069,指定緊急避難場所（一時避難場所）地震［屋外］,地震などが発生したときに、様子を見るためにとりあえず避難する場所で、正確な情報を得て、地域ぐるみで活動を行う拠点となります。,大和田町7－5－1
中野北小学校,35.674343562001845,139.32675113711397,指定緊急避難場所（一時避難場所）地震［屋外］,地震などが発生したときに、様子を見るためにとりあえず避難する場所で、正確な情報を得て、地域ぐるみで活動を行う拠点となります。,中野山王3－1－1
清水小学校,35.67611516713291,139.31969491220966,指定緊急避難場所（一時避難場所）地震［屋外］,地震などが発生したときに、様子を見るためにとりあえず避難する場所で、正確な情報を得て、地域ぐるみで活動を行う拠点となります。,中野山王3－25－1
大和田小学校,35.66588502410645,139.35455595815458,指定緊急避難場所（一時避難場所）地震［屋外］,地震などが発生したときに、様子を見るためにとりあえず避難する場所で、正確な情報を得て、地域ぐるみで活動を行う拠点となります。,大和田町4－19－1
小宮小学校,35.68386340933192,139.36773718437243,指定緊急避難場所（一時避難場所）地震［屋外］,地震などが発生したときに、様子を見るためにとりあえず避難する場所で、正確な情報を得て、地域ぐるみで活動を行う拠点となります。,小宮町1128－3
高倉小学校,35.66264285266321,139.36575861004783,指定緊急避難場所（一時避難場所）地震［屋外］,地震などが発生したときに、様子を見るためにとりあえず避難する場所で、正確な情報を得て、地域ぐるみで活動を行う拠点となります。,高倉町67－2
宇津木台小学校,35.6870372306962,139.35402297275712,指定緊急避難場所（一時避難場所）地震［屋外］,地震などが発生したときに、様子を見るためにとりあえず避難する場所で、正確な情報を得て、地域ぐるみで活動を行う拠点となります。,久保山町2－18
横山第一小学校,35.63413469077588,139.3045910223994,指定緊急避難場所（一時避難場所）地震［屋外］,地震などが発生したときに、様子を見るためにとりあえず避難する場所で、正確な情報を得て、地域ぐるみで活動を行う拠点となります。,館町74
横山第二小学校,35.653957869520795,139.30149750979675,指定緊急避難場所（一時避難場所）地震［屋外］,地震などが発生したときに、様子を見るためにとりあえず避難する場所で、正確な情報を得て、地域ぐるみで活動を行う拠点となります。,並木町26－1
散田小学校,35.64783855437053,139.30151914846203,指定緊急避難場所（一時避難場所）地震［屋外］,地震などが発生したときに、様子を見るためにとりあえず避難する場所で、正確な情報を得て、地域ぐるみで活動を行う拠点となります。,散田町5－23－1
長房小学校,35.65783527767149,139.30069642201425,指定緊急避難場所（一時避難場所）地震［屋外］,地震などが発生したときに、様子を見るためにとりあえず避難する場所で、正確な情報を得て、地域ぐるみで活動を行う拠点となります。,長房町340－4
船田小学校,35.657868851102045,139.2891099380189,指定緊急避難場所（一時避難場所）地震［屋外］,地震などが発生したときに、様子を見るためにとりあえず避難する場所で、正確な情報を得て、地域ぐるみで活動を行う拠点となります。,長房町1041－2
館小中学校 本校舎,35.63047118783687,139.28812577211977,指定緊急避難場所（一時避難場所）地震［屋外］,地震などが発生したときに、様子を見るためにとりあえず避難する場所で、正確な情報を得て、地域ぐるみで活動を行う拠点となります。,館町1097-15
山田小学校,35.646677961312434,139.31379749311253,指定緊急避難場所（一時避難場所）地震［屋外］,地震などが発生したときに、様子を見るためにとりあえず避難する場所で、正確な情報を得て、地域ぐるみで活動を行う拠点となります。,山田町1553
椚田小学校,35.636642876225054,139.3023217179745,指定緊急避難場所（一時避難場所）地震［屋外］,地震などが発生したときに、様子を見るためにとりあえず避難する場所で、正確な情報を得て、地域ぐるみで活動を行う拠点となります。,椚田町571－2
緑が丘小学校,35.622605985709534,139.30998739462322,指定緊急避難場所（一時避難場所）地震［屋外］,地震などが発生したときに、様子を見るためにとりあえず避難する場所で、正確な情報を得て、地域ぐるみで活動を行う拠点となります。,寺田町405－5
元八王子小学校,35.66970410746076,139.29188091374226,指定緊急避難場所（一時避難場所）地震［屋外］,地震などが発生したときに、様子を見るためにとりあえず避難する場所で、正確な情報を得て、地域ぐるみで活動を行う拠点となります。,弐分方町761
元八王子東小学校,35.671304116162695,139.30434116868946,指定緊急避難場所（一時避難場所）地震［屋外］,地震などが発生したときに、様子を見るためにとりあえず避難する場所で、正確な情報を得て、地域ぐるみで活動を行う拠点となります。,叶谷町1521
上壱分方小学校,35.684868521978494,139.28395057176493,指定緊急避難場所（一時避難場所）地震［屋外］,地震などが発生したときに、様子を見るためにとりあえず避難する場所で、正確な情報を得て、地域ぐるみで活動を行う拠点となります。,上壱分方町799－2
城山小学校,35.65912633082351,139.27767131941675,指定緊急避難場所（一時避難場所）地震［屋外］,地震などが発生したときに、様子を見るためにとりあえず避難する場所で、正確な情報を得て、地域ぐるみで活動を行う拠点となります。,元八王子町2－1767
弐分方小学校,35.67178681151408,139.28866373087166,指定緊急避難場所（一時避難場所）地震［屋外］,地震などが発生したときに、様子を見るためにとりあえず避難する場所で、正確な情報を得て、地域ぐるみで活動を行う拠点となります。,弐分方町520－1
横川小学校,35.6672953771124,139.30764441714737,指定緊急避難場所（一時避難場所）地震［屋外］,地震などが発生したときに、様子を見るためにとりあえず避難する場所で、正確な情報を得て、地域ぐるみで活動を行う拠点となります。,横川町305
恩方第一小学校,35.66963859553677,139.25449615651092,指定緊急避難場所（一時避難場所）地震［屋外］,地震などが発生したときに、様子を見るためにとりあえず避難する場所で、正確な情報を得て、地域ぐるみで活動を行う拠点となります。,下恩方町1369
恩方第二小学校,35.67271468497567,139.21047612483446,指定緊急避難場所（一時避難場所）地震［屋外］,地震などが発生したときに、様子を見るためにとりあえず避難する場所で、正確な情報を得て、地域ぐるみで活動を行う拠点となります。,上恩方町2193
元木小学校,35.68123329580707,139.26443185244682,指定緊急避難場所（一時避難場所）地震［屋外］,地震などが発生したときに、様子を見るためにとりあえず避難する場所で、正確な情報を得て、地域ぐるみで活動を行う拠点となります。,下恩方町515－1
川口小学校,35.6924199455272,139.28036430115532,指定緊急避難場所（一時避難場所）地震［屋外］,地震などが発生したときに、様子を見るためにとりあえず避難する場所で、正確な情報を得て、地域ぐるみで活動を行う拠点となります。,川口町3675
陶鎔小学校,35.68814356821895,139.30853188569105,指定緊急避難場所（一時避難場所）地震［屋外］,地震などが発生したときに、様子を見るためにとりあえず避難する場所で、正確な情報を得て、地域ぐるみで活動を行う拠点となります。,犬目町56
上川口小学校,35.70557970418607,139.2501805278845,指定緊急避難場所（一時避難場所）地震［屋外］,地震などが発生したときに、様子を見るためにとりあえず避難する場所で、正確な情報を得て、地域ぐるみで活動を行う拠点となります。,上川町1099
美山小学校,35.69070064612975,139.24830788928756,指定緊急避難場所（一時避難場所）地震［屋外］,地震などが発生したときに、様子を見るためにとりあえず避難する場所で、正確な情報を得て、地域ぐるみで活動を行う拠点となります。,美山町1892
楢原小学校,35.67561702870391,139.30738178629494,指定緊急避難場所（一時避難場所）地震［屋外］,地震などが発生したときに、様子を見るためにとりあえず避難する場所で、正確な情報を得て、地域ぐるみで活動を行う拠点となります。,楢原町1287－2
松枝小学校,35.68517201940575,139.30230336520705,指定緊急避難場所（一時避難場所）地震［屋外］,地震などが発生したときに、様子を見るためにとりあえず避難する場所で、正確な情報を得て、地域ぐるみで活動を行う拠点となります。,楢原町601－13
加住小中学校　本校舎,35.702086749214665,139.3168092681936,指定緊急避難場所（一時避難場所）地震［屋外］,地震などが発生したときに、様子を見るためにとりあえず避難する場所で、正確な情報を得て、地域ぐるみで活動を行う拠点となります。,加住町1－191
由井第一小学校,35.645687696842344,139.35608636118965,指定緊急避難場所（一時避難場所）地震［屋外］,地震などが発生したときに、様子を見るためにとりあえず避難する場所で、正確な情報を得て、地域ぐるみで活動を行う拠点となります。,打越町348－1
由井第二小学校,35.63663970426436,139.33822098980508,指定緊急避難場所（一時避難場所）地震［屋外］,地震などが発生したときに、様子を見るためにとりあえず避難する場所で、正確な情報を得て、地域ぐるみで活動を行う拠点となります。,片倉町2180
由井第三小学校,35.642827258021256,139.32713790226416,指定緊急避難場所（一時避難場所）地震［屋外］,地震などが発生したときに、様子を見るためにとりあえず避難する場所で、正確な情報を得て、地域ぐるみで活動を行う拠点となります。,小比企町1201
長沼小学校,35.64258047061909,139.3654638186963,指定緊急避難場所（一時避難場所）地震［屋外］,地震などが発生したときに、様子を見るためにとりあえず避難する場所で、正確な情報を得て、地域ぐるみで活動を行う拠点となります。,長沼町707－3
片倉台小学校,35.631369656422486,139.34611093754407,指定緊急避難場所（一時避難場所）地震［屋外］,地震などが発生したときに、様子を見るためにとりあえず避難する場所で、正確な情報を得て、地域ぐるみで活動を行う拠点となります。,片倉町1318
高嶺小学校,35.62848377391407,139.3507367130152,指定緊急避難場所（一時避難場所）地震［屋外］,地震などが発生したときに、様子を見るためにとりあえず避難する場所で、正確な情報を得て、地域ぐるみで活動を行う拠点となります。,北野台4－21－1
みなみ野小学校（みなみ野小中学校）,35.63270249462253,139.32316929278983,指定緊急避難場所（一時避難場所）地震［屋外］,地震などが発生したときに、様子を見るためにとりあえず避難する場所で、正確な情報を得て、地域ぐるみで活動を行う拠点となります。,みなみ野6－14－1
みなみ野君田小学校,35.62724204503521,139.32470936125233,指定緊急避難場所（一時避難場所）地震［屋外］,地震などが発生したときに、様子を見るためにとりあえず避難する場所で、正確な情報を得て、地域ぐるみで活動を行う拠点となります。,みなみ野4-3-1
七国小学校,35.62070354031823,139.32082794301326,指定緊急避難場所（一時避難場所）地震［屋外］,地震などが発生したときに、様子を見るためにとりあえず避難する場所で、正確な情報を得て、地域ぐるみで活動を行う拠点となります。,七国5－27－1
浅川小学校,35.640593280895445,139.28190934197912,指定緊急避難場所（一時避難場所）地震［屋外］,地震などが発生したときに、様子を見るためにとりあえず避難する場所で、正確な情報を得て、地域ぐるみで活動を行う拠点となります。,初沢町1335
東浅川小学校,35.64277312501877,139.28664457040915,指定緊急避難場所（一時避難場所）地震［屋外］,地震などが発生したときに、様子を見るためにとりあえず避難する場所で、正確な情報を得て、地域ぐるみで活動を行う拠点となります。,東浅川町550－22
由木中央小学校,35.6300729480805,139.3832536062615,指定緊急避難場所（一時避難場所）地震［屋外］,地震などが発生したときに、様子を見るためにとりあえず避難する場所で、正確な情報を得て、地域ぐるみで活動を行う拠点となります。,下柚木25
由木東小学校,35.634415316506306,139.40764054896636,指定緊急避難場所（一時避難場所）地震［屋外］,地震などが発生したときに、様子を見るためにとりあえず避難する場所で、正確な情報を得て、地域ぐるみで活動を行う拠点となります。,東中野1347
由木西小学校,35.62325804205251,139.36127686408452,指定緊急避難場所（一時避難場所）地震［屋外］,地震などが発生したときに、様子を見るためにとりあえず避難する場所で、正確な情報を得て、地域ぐるみで活動を行う拠点となります。,上柚木538－1
鹿島小学校,35.633916870718835,139.42613187869986,指定緊急避難場所（一時避難場所）地震［屋外］,地震などが発生したときに、様子を見るためにとりあえず避難する場所で、正確な情報を得て、地域ぐるみで活動を行う拠点となります。,鹿島13
松が谷小学校,35.6286458102254,139.4143934837967,指定緊急避難場所（一時避難場所）地震［屋外］,地震などが発生したときに、様子を見るためにとりあえず避難する場所で、正確な情報を得て、地域ぐるみで活動を行う拠点となります。,松が谷12
中山小学校,35.62581869440587,139.35843499077362,指定緊急避難場所（一時避難場所）地震［屋外］,地震などが発生したときに、様子を見るためにとりあえず避難する場所で、正確な情報を得て、地域ぐるみで活動を行う拠点となります。,中山1155
柏木小学校,35.61031441001293,139.38353291382364,指定緊急避難場所（一時避難場所）地震［屋外］,地震などが発生したときに、様子を見るためにとりあえず避難する場所で、正確な情報を得て、地域ぐるみで活動を行う拠点となります。,南大沢3－3
南大沢小学校,35.60846841898955,139.374368017195,指定緊急避難場所（一時避難場所）地震［屋外］,地震などが発生したときに、様子を見るためにとりあえず避難する場所で、正確な情報を得て、地域ぐるみで活動を行う拠点となります。,南大沢4－18
宮上小学校,35.61062867011604,139.37107581209537,指定緊急避難場所（一時避難場所）地震［屋外］,地震などが発生したときに、様子を見るためにとりあえず避難する場所で、正確な情報を得て、地域ぐるみで活動を行う拠点となります。,南大沢5－10
秋葉台小学校,35.62474412861212,139.40572618489318,指定緊急避難場所（一時避難場所）地震［屋外］,地震などが発生したときに、様子を見るためにとりあえず避難する場所で、正確な情報を得て、地域ぐるみで活動を行う拠点となります。地震［屋外］,別所2－5
別所小学校,35.61398918865447,139.3955184702513,指定緊急避難場所（一時避難場所）地震［屋外］,地震などが発生したときに、様子を見るためにとりあえず避難する場所で、正確な情報を得て、地域ぐるみで活動を行う拠点となります。,別所2－44
愛宕小学校,35.619404872881134,139.37276983033627,指定緊急避難場所（一時避難場所）地震［屋外］,地震などが発生したときに、様子を見るためにとりあえず避難する場所で、正確な情報を得て、地域ぐるみで活動を行う拠点となります。,上柚木3－20
松木小学校,35.62218072145623,139.39399726696564,指定緊急避難場所（一時避難場所）地震［屋外］,地震などが発生したときに、様子を見るためにとりあえず避難する場所で、正確な情報を得て、地域ぐるみで活動を行う拠点となります。,松木57－3
下柚木小学校,35.62248739823589,139.3803570299825,指定緊急避難場所（一時避難場所）地震［屋外］,地震などが発生したときに、様子を見るためにとりあえず避難する場所で、正確な情報を得て、地域ぐるみで活動を行う拠点となります。,下柚木3－9
上柚木小学校,35.616285041273315,139.36887274801535,指定緊急避難場所（一時避難場所）地震［屋外］,地震などが発生したときに、様子を見るためにとりあえず避難する場所で、正確な情報を得て、地域ぐるみで活動を行う拠点となります。,上柚木3－15
長池小学校,35.611299073468594,139.38851334712078,指定緊急避難場所（一時避難場所）地震［屋外］,地震などが発生したときに、様子を見るためにとりあえず避難する場所で、正確な情報を得て、地域ぐるみで活動を行う拠点となります。,別所1-55
鑓水小学校,35.6132589745298,139.3630138987295,指定緊急避難場所（一時避難場所）地震［屋外］,地震などが発生したときに、様子を見るためにとりあえず避難する場所で、正確な情報を得て、地域ぐるみで活動を行う拠点となります。,鑓水2－74
第一中学校,35.66997994948416,139.3616699382516,指定緊急避難場所（一時避難場所）地震［屋外］,地震などが発生したときに、様子を見るためにとりあえず避難する場所で、正確な情報を得て、地域ぐるみで活動を行う拠点となります。,石川町2957－1
第二中学校,35.67067359880182,139.31518640826874,指定緊急避難場所（一時避難場所）地震［屋外］,地震などが発生したときに、様子を見るためにとりあえず避難する場所で、正確な情報を得て、地域ぐるみで活動を行う拠点となります。,中野上町4－28－1
第四中学校,35.66612999466551,139.32054747952202,指定緊急避難場所（一時避難場所）地震［屋外］,地震などが発生したときに、様子を見るためにとりあえず避難する場所で、正確な情報を得て、地域ぐるみで活動を行う拠点となります。,元本郷町2－21－1
第五中学校,35.66144733125214,139.344148033693,指定緊急避難場所（一時避難場所）地震［屋外］,地震などが発生したときに、様子を見るためにとりあえず避難する場所で、正確な情報を得て、地域ぐるみで活動を行う拠点となります。,明神町4－19－1
第六中学校,35.65353300168999,139.33001958147864,指定緊急避難場所（一時避難場所）地震［屋外］,地震などが発生したときに、様子を見るためにとりあえず避難する場所で、正確な情報を得て、地域ぐるみで活動を行う拠点となります。,上野町97
第七中学校,35.65047300445806,139.31628154198825,指定緊急避難場所（一時避難場所）地震［屋外］,地震などが発生したときに、様子を見るためにとりあえず避難する場所で、正確な情報を得て、地域ぐるみで活動を行う拠点となります。,散田町2－2－1
ひよどり山中学校,35.67551501662341,139.33861125613043,指定緊急避難場所（一時避難場所）地震［屋外］,地震などが発生したときに、様子を見るためにとりあえず避難する場所で、正確な情報を得て、地域ぐるみで活動を行う拠点となります。,暁町3－1－1
甲ノ原中学校,35.68275611856887,139.32180446461126,指定緊急避難場所（一時避難場所）地震［屋外］,地震などが発生したときに、様子を見るためにとりあえず避難する場所で、正確な情報を得て、地域ぐるみで活動を行う拠点となります。,中野町2639－2
石川中学校,35.68372735882435,139.3574278907882,指定緊急避難場所（一時避難場所）地震［屋外］,地震などが発生したときに、様子を見るためにとりあえず避難する場所で、正確な情報を得て、地域ぐるみで活動を行う拠点となります。,久保山町2－55
横山中学校,35.64885054386831,139.30271470977698,指定緊急避難場所（一時避難場所）地震［屋外］,地震などが発生したときに、様子を見るためにとりあえず避難する場所で、正確な情報を得て、地域ぐるみで活動を行う拠点となります。,散田町5－22－36
長房中学校,35.658148031290956,139.28797767034365,指定緊急避難場所（一時避難場所）地震［屋外］,地震などが発生したときに、様子を見るためにとりあえず避難する場所で、正確な情報を得て、地域ぐるみで活動を行う拠点となります。,長房町1041－1
館小中学校　分校舎,35.62785510714112,139.29094040993468,指定緊急避難場所（一時避難場所）地震［屋外］,地震などが発生したときに、様子を見るためにとりあえず避難する場所で、正確な情報を得て、地域ぐるみで活動を行う拠点となります。,館町2786
椚田中学校,35.63414831310323,139.30794284003662,指定緊急避難場所（一時避難場所）地震［屋外］,地震などが発生したときに、様子を見るためにとりあえず避難する場所で、正確な情報を得て、地域ぐるみで活動を行う拠点となります。,椚田町172
元八王子中学校,35.67230841065112,139.2935435977496,指定緊急避難場所（一時避難場所）地震［屋外］,地震などが発生したときに、様子を見るためにとりあえず避難する場所で、正確な情報を得て、地域ぐるみで活動を行う拠点となります。,大楽寺町415
四谷中学校,35.67756681016113,139.29611883840195,指定緊急避難場所（一時避難場所）地震［屋外］,地震などが発生したときに、様子を見るためにとりあえず避難する場所で、正確な情報を得て、地域ぐるみで活動を行う拠点となります。,四谷町555
横川中学校,35.66866505059513,139.3054726490411,指定緊急避難場所（一時避難場所）地震［屋外］,地震などが発生したときに、様子を見るためにとりあえず避難する場所で、正確な情報を得て、地域ぐるみで活動を行う拠点となります。,横川町364
城山中学校,35.66937060763828,139.28199444074744,指定緊急避難場所（一時避難場所）地震［屋外］,地震などが発生したときに、様子を見るためにとりあえず避難する場所で、正確な情報を得て、地域ぐるみで活動を行う拠点となります。,川町792－2
恩方中学校,35.669923411888036,139.24264875540283,指定緊急避難場所（一時避難場所）地震［屋外］,地震などが発生したときに、様子を見るためにとりあえず避難する場所で、正確な情報を得て、地域ぐるみで活動を行う拠点となります。,上恩方町11
川口中学校,35.69391016859518,139.2840277430132,指定緊急避難場所（一時避難場所）地震［屋外］,地震などが発生したときに、様子を見るためにとりあえず避難する場所で、正確な情報を得て、地域ぐるみで活動を行う拠点となります。,川口町2555
楢原中学校,35.67869647183117,139.31396723552638,指定緊急避難場所（一時避難場所）地震［屋外］,地震などが発生したときに、様子を見るためにとりあえず避難する場所で、正確な情報を得て、地域ぐるみで活動を行う拠点となります。,楢原町1235
加住小中学校　分校舎,35.70426032164198,139.31415944274303,指定緊急避難場所（一時避難場所）地震［屋外］,地震などが発生したときに、様子を見るためにとりあえず避難する場所で、正確な情報を得て、地域ぐるみで活動を行う拠点となります。,宮下町108－7
由井中学校,35.64503575503092,139.33983054471364,指定緊急避難場所（一時避難場所）地震［屋外］,地震などが発生したときに、様子を見るためにとりあえず避難する場所で、正確な情報を得て、地域ぐるみで活動を行う拠点となります。,片倉町553
打越中学校,35.6453582732319,139.35794595473945,指定緊急避難場所（一時避難場所）地震［屋外］,地震などが発生したときに、様子を見るためにとりあえず避難する場所で、正確な情報を得て、地域ぐるみで活動を行う拠点となります。,打越町349－1
みなみ野中学校（みなみ野小中学校）,35.632769801610166,139.32207484348908,指定緊急避難場所（一時避難場所）地震［屋外］,地震などが発生したときに、様子を見るためにとりあえず避難する場所で、正確な情報を得て、地域ぐるみで活動を行う拠点となります。,みなみ野6－14－2
七国中学校,35.6208764620088,139.32201382948418,指定緊急避難場所（一時避難場所）地震［屋外］,地震などが発生したときに、様子を見るためにとりあえず避難する場所で、正確な情報を得て、地域ぐるみで活動を行う拠点となります。,七国6－41－1
浅川中学校,35.638581602621,139.28013248012817,指定緊急避難場所（一時避難場所）地震［屋外］,地震などが発生したときに、様子を見るためにとりあえず避難する場所で、正確な情報を得て、地域ぐるみで活動を行う拠点となります。,初沢町1370
陵南中学校,35.645821611704434,139.29373436195317,指定緊急避難場所（一時避難場所）地震［屋外］,地震などが発生したときに、様子を見るためにとりあえず避難する場所で、正確な情報を得て、地域ぐるみで活動を行う拠点となります。,東浅川町553－9
由木中学校,35.626861657204635,139.3852922609317,指定緊急避難場所（一時避難場所）地震［屋外］,地震などが発生したときに、様子を見るためにとりあえず避難する場所で、正確な情報を得て、地域ぐるみで活動を行う拠点となります。,下柚木2－34－2
松が谷中学校,35.63049627482224,139.41762477999058,指定緊急避難場所（一時避難場所）地震［屋外］,地震などが発生したときに、様子を見るためにとりあえず避難する場所で、正確な情報を得て、地域ぐるみで活動を行う拠点となります。,松が谷23
中山中学校,35.62436184641142,139.35815814776083,指定緊急避難場所（一時避難場所）地震［屋外］,地震などが発生したときに、様子を見るためにとりあえず避難する場所で、正確な情報を得て、地域ぐるみで活動を行う拠点となります。,中山1158－1
南大沢中学校,35.60880657900704,139.38026990463393,指定緊急避難場所（一時避難場所）地震［屋外］,地震などが発生したときに、様子を見るためにとりあえず避難する場所で、正確な情報を得て、地域ぐるみで活動を行う拠点となります。,南大沢3－7
宮上中学校,35.61323593772255,139.37329543756474,指定緊急避難場所（一時避難場所）地震［屋外］,地震などが発生したときに、様子を見るためにとりあえず避難する場所で、正確な情報を得て、地域ぐるみで活動を行う拠点となります。,南大沢5－5
別所中学校,35.619419856885344,139.40068028148843,指定緊急避難場所（一時避難場所）地震［屋外］,地震などが発生したときに、様子を見るためにとりあえず避難する場所で、正確な情報を得て、地域ぐるみで活動を行う拠点となります。,別所2－28
上柚木中学校,35.617974787950494,139.37068457281427,指定緊急避難場所（一時避難場所）地震［屋外］,地震などが発生したときに、様子を見るためにとりあえず避難する場所で、正確な情報を得て、地域ぐるみで活動を行う拠点となります。,上柚木3－17
松木中学校,35.61812606670778,139.39188180030362,指定緊急避難場所（一時避難場所）地震［屋外］,地震などが発生したときに、様子を見るためにとりあえず避難する場所で、正確な情報を得て、地域ぐるみで活動を行う拠点となります。,別所1－34－1
鑓水中学校,35.61282461400872,139.36040337556474,指定緊急避難場所（一時避難場所）地震［屋外］,地震などが発生したときに、様子を見るためにとりあえず避難する場所で、正確な情報を得て、地域ぐるみで活動を行う拠点となります。,鑓水2－67
高尾山学園（小・中学部）,35.62469986031114,139.28860547294317,指定緊急避難場所（一時避難場所）地震［屋外］,地震などが発生したときに、様子を見るためにとりあえず避難する場所で、正確な情報を得て、地域ぐるみで活動を行う拠点となります。,館町1097-30
稲荷山行政資料保管等施設（旧稲荷山小学校） ,35.62052137337032,139.30006059736053,指定緊急避難場所（一時避難場所）地震［屋外］,地震などが発生したときに、様子を見るためにとりあえず避難する場所で、正確な情報を得て、地域ぐるみで活動を行う拠点となります。,寺田町1455－3
デジタルハリウッド大学,35.63024766575328,139.42176798224844,指定緊急避難場所（一時避難場所）地震［屋外］,地震などが発生したときに、様子を見るためにとりあえず避難する場所で、正確な情報を得て、地域ぐるみで活動を行う拠点となります。,松が谷1
夕やけ小やけふれあいの里,35.66899707933046,139.21699577843071,指定緊急避難場所（一時避難場所）地震［屋外］,地震などが発生したときに、様子を見るためにとりあえず避難する場所で、正確な情報を得て、地域ぐるみで活動を行う拠点となります。,上恩方町2030
八王子桑志高等学校,35.65788336331285,139.30579631386135,指定緊急避難場所（一時避難場所）地震［屋外］,地震などが発生したときに、様子を見るためにとりあえず避難する場所で、正確な情報を得て、地域ぐるみで活動を行う拠点となります。,千人町4－8－1
八王子拓真高等学校,35.65491710079724,139.31724797160226,指定緊急避難場所（一時避難場所）地震［屋外］,地震などが発生したときに、様子を見るためにとりあえず避難する場所で、正確な情報を得て、地域ぐるみで活動を行う拠点となります。,台町3－25－1
南多摩中等教育学校,35.66059135412559,139.34410718695526,指定緊急避難場所（一時避難場所）地震［屋外］,地震などが発生したときに、様子を見るためにとりあえず避難する場所で、正確な情報を得て、地域ぐるみで活動を行う拠点となります。,明神町4－20－1
富士森高等学校,35.65703454600419,139.30247205062165,指定緊急避難場所（一時避難場所）地震［屋外］,地震などが発生したときに、様子を見るためにとりあえず避難する場所で、正確な情報を得て、地域ぐるみで活動を行う拠点となります。,長房町420-2
片倉高等学校,35.62986536267027,139.34027793527335,指定緊急避難場所（一時避難場所）地震［屋外］,地震などが発生したときに、様子を見るためにとりあえず避難する場所で、正確な情報を得て、地域ぐるみで活動を行う拠点となります。,片倉町1643
八王子東高等学校,35.66204255373837,139.36470687021324,指定緊急避難場所（一時避難場所）地震［屋外］,地震などが発生したときに、様子を見るためにとりあえず避難する場所で、正確な情報を得て、地域ぐるみで活動を行う拠点となります。,高倉町68－1
八王子北高等学校,35.68563731918771,139.30345790932904,指定緊急避難場所（一時避難場所）地震［屋外］,地震などが発生したときに、様子を見るためにとりあえず避難する場所で、正確な情報を得て、地域ぐるみで活動を行う拠点となります。,楢原町601
翔陽高等学校,35.62985999501399,139.2915422668605,指定緊急避難場所（一時避難場所）地震［屋外］,地震などが発生したときに、様子を見るためにとりあえず避難する場所で、正確な情報を得て、地域ぐるみで活動を行う拠点となります。,館町1097－136
松が谷高等学校,35.62876311066823,139.4104474666069,指定緊急避難場所（一時避難場所）地震［屋外］,地震などが発生したときに、様子を見るためにとりあえず避難する場所で、正確な情報を得て、地域ぐるみで活動を行う拠点となります。,松が谷1772
わくわくビレッジ,35.67418390322969,139.277337494952,指定緊急避難場所（一時避難場所）地震［屋外］,地震などが発生したときに、様子を見るためにとりあえず避難する場所で、正確な情報を得て、地域ぐるみで活動を行う拠点となります。,川町55
